STARLINK-6252           
1 56555U 23065BE  26145.04666863 -.00001004  00000+0 -26959-4 0  9990
2 56555  43.0022 152.0384 0001723 272.0733  87.9921 15.27570633168155
STARLINK-5302           
1 56556U 23065BF  26145.06079816  .00000300  00000+0  20441-4 0  9995
2 56556  43.0025 152.1458 0001316 310.9059  49.1679 15.27576164168158
STARLINK-6265           
1 56557U 23065BG  26145.07236174  .00000506  00000+0  27905-4 0  9999
2 56557  43.0042 152.2274 0001434 283.6504  76.4188 15.27577289168154
STARLINK-6286           
1 56558U 23065BH  26145.07315228  .00000034  00000+0  10775-4 0  9991
2 56558  43.0027 155.6405 0001227 302.6755  57.3978 15.27577261168112
BEIDOU-3 G4             
1 56564U 23066A   26145.18374919 -.00000284  00000+0  00000+0 0  9996
2 56564   0.5146 326.0191 0003833 169.4000 313.5730  1.00272246 11168
STARLINK-30122          
1 56688U 23067A   26144.64374410  .00000039  00000+0  10935-4 0  9990
2 56688  43.0019 209.1084 0001400 275.1333  84.9358 15.27581756167306
STARLINK-30129          
1 56689U 23067B   26144.88468488  .00001082  00000+0  50008-4 0  9990
2 56689  43.0001 210.8927 0001263 276.4239  83.6469 15.26745947167233
STARLINK-30124          
1 56690U 23067C   26145.22015477  .00001701  00000+0  71318-4 0  9992
2 56690  43.0044 209.1239 0002186 270.5783  89.4818 15.27583882167289
STARLINK-30036          
1 56692U 23067E   26145.21117522  .00000900  00000+0  42243-4 0  9992
2 56692  43.0027 209.0736 0001500 269.9685  90.0995 15.27578419166154
STARLINK-30067          
1 56693U 23067F   26145.21759329  .00006235  00000+0  23586-3 0  9995
2 56693  43.0029 209.1235 0001388 265.3870  94.6823 15.27584900167289
STARLINK-30126          
1 56694U 23067G   26145.20188346  .00007230  00000+0  27199-3 0  9990
2 56694  43.0030 202.1954 0001871 259.8247 100.2394 15.27580739167368
STARLINK-30121          
1 56695U 23067H   26145.22145375 -.00000337  00000+0 -27282-5 0  9996
2 56695  43.0016 209.1325 0001092 278.1660  81.9068 15.27576402167286
STARLINK-30130          
1 56697U 23067K   26145.19726088 -.00003972  00000+0 -13489-3 0  9990
2 56697  43.0080 198.7501 0003706 281.6169  78.4267 15.27562547167147
STARLINK-30068          
1 56698U 23067L   26145.15884532  .00000098  00000+0  13101-4 0  9992
2 56698  43.0038 188.0320 0001732 275.7207  84.3447 15.27578147167268
STARLINK-30127          
1 56699U 23067M   26145.22853788  .00000434  00000+0  25868-4 0  9997
2 56699  43.0043 209.2049 0002062 266.4265  93.6350 15.26734901167286
STARLINK-30053          
1 56700U 23067N   26144.63061376  .00000897  00000+0  42119-4 0  9999
2 56700  43.0028 202.2416 0001889 273.1514  86.9121 15.27574664167315
STARLINK-30125          
1 56701U 23067P   26145.21650767 -.00001727  00000+0 -53276-4 0  9994
2 56701  43.0022 198.8993 0001634 260.8755  99.1912 15.27565960167401
STARLINK-30117          
1 56702U 23067Q   26144.64630566  .00000928  00000+0  43239-4 0  9994
2 56702  43.0018 209.0957 0001428 259.0033 101.0658 15.27581678167237
STARLINK-30132          
1 56703U 23067R   26145.18260693  .00000758  00000+0  37063-4 0  9994
2 56703  42.9976 202.0463 0001050 280.4168  79.6565 15.27573386167360
STARLINK-30066          
1 56704U 23067S   26145.20108787  .00001483  00000+0  63397-4 0  9998
2 56704  43.0024 198.7641 0001302 277.5897  82.4807 15.27577712167405
STARLINK-30080          
1 56705U 23067T   26145.13651764  .00000407  00000+0  24328-4 0  9995
2 56705  43.0007 191.3246 0001559 275.8425  84.2249 15.27576901167486
STARLINK-30079          
1 56706U 23067U   26145.22059890  .00000404  00000+0  24743-4 0  9996
2 56706  43.0027 209.1410 0001491 265.9512  94.1169 15.26749043167289
STARLINK-30070          
1 56707U 23067V   26144.63189214 -.00000008  00000+0  92249-5 0  9993
2 56707  43.0024 202.2449 0001684 257.1426 102.9238 15.27575897167318
STARLINK-30071          
1 56708U 23067W   26145.16476262  .00003794  00000+0  14732-3 0  9998
2 56708  43.0014 202.7682 0002094 271.8684  88.1928 15.27579359167359
STARLINK-30085          
1 56709U 23067X   26145.19337841  .00000292  00000+0  20129-4 0  9999
2 56709  43.0025 198.7188 0001054 278.8579  81.2153 15.27578702167144
ONEWEB-0561             
1 56710U 23068A   26144.94031808  .00000054  00000+0  10073-3 0  9990
2 56710  87.9175 279.0779 0002077  88.5739 271.5632 13.20773308146433
ONEWEB-0668             
1 56711U 23068B   26145.17383690  .00000098  00000+0  22363-3 0  9999
2 56711  87.9111 233.3409 0002288 112.8400 247.2972 13.16593211148759
ONEWEB-0676             
1 56712U 23068C   26144.95377524 -.00000014  00000+0 -69150-4 0  9990
2 56712  87.9108 233.3909 0002300  95.2876 264.8517 13.16595970148649
ONEWEB-0677             
1 56713U 23068D   26145.08005637  .00000059  00000+0  11373-3 0  9999
2 56713  87.9172 279.0417 0002311 101.2836 258.8557 13.20772352146751
ONEWEB-0678             
1 56714U 23068E   26145.03855014 -.00000088  00000+0 -26828-3 0  9992
2 56714  87.8998 263.8042 0001749  92.6333 267.4998 13.15547437146248
