OBJECT_NAME,OBJECT_ID,EPOCH,MEAN_MOTION,ECCENTRICITY,INCLINATION,RA_OF_ASC_NODE,ARG_OF_PERICENTER,MEAN_ANOMALY,EPHEMERIS_TYPE,CLASSIFICATION_TYPE,NORAD_CAT_ID,ELEMENT_SET_NO,REV_AT_EPOCH,BSTAR,MEAN_MOTION_DOT,MEAN_MOTION_DDOT
STARLINK-6252,2023-065BE,2026-05-25T01:07:12.169632,15.27570633,.0001723,43.0022,152.0384,272.0733,87.9921,0,U,56555,999,16815,-.26959E-4,-.1004E-4,0
STARLINK-5302,2023-065BF,2026-05-25T01:27:32.961024,15.27576164,.0001316,43.0025,152.1458,310.9059,49.1679,0,U,56556,999,16815,.20441E-4,.3E-5,0
STARLINK-6265,2023-065BG,2026-05-25T01:44:12.054336,15.27577289,.0001434,43.0042,152.2274,283.6504,76.4188,0,U,56557,999,16815,.27905E-4,.506E-5,0
STARLINK-6286,2023-065BH,2026-05-25T01:45:20.356992,15.27577261,.0001227,43.0027,155.6405,302.6755,57.3978,0,U,56558,999,16811,.10775E-4,.34E-6,0
BEIDOU-3 G4,2023-066A,2026-05-25T04:24:35.930016,1.00272246,.0003833,0.5146,326.0191,169.4000,313.5730,0,U,56564,999,1116,0,-.284E-5,0
STARLINK-30122,2023-067A,2026-05-24T15:26:59.490240,15.27581756,.00014001,43.0019,209.1084,275.1333,84.9358,0,U,56688,999,16730,.10935208E-4,.39E-6,0
STARLINK-30129,2023-067B,2026-05-24T21:13:56.773632,15.26745947,.0001263,43.0001,210.8927,276.4239,83.6469,0,U,56689,999,16723,.50008E-4,.1082E-4,0
STARLINK-30124,2023-067C,2026-05-25T05:17:01.372128,15.27583882,.0002186,43.0044,209.1239,270.5783,89.4818,0,U,56690,999,16728,.71318E-4,.1701E-4,0
STARLINK-30036,2023-067E,2026-05-25T05:04:05.539008,15.27578419,.00015,43.0027,209.0736,269.9685,90.0995,0,U,56692,999,16615,.42243E-4,.9E-5,0
STARLINK-30067,2023-067F,2026-05-25T05:13:20.060256,15.27584900,.0001388,43.0029,209.1235,265.3870,94.6823,0,U,56693,999,16728,.23586E-3,.6235E-4,0
STARLINK-30126,2023-067G,2026-05-25T04:50:42.730944,15.27580739,.0001871,43.0030,202.1954,259.8247,100.2394,0,U,56694,999,16736,.27199E-3,.723E-4,0
STARLINK-30121,2023-067H,2026-05-25T05:18:53.604000,15.27576402,.0001092,43.0016,209.1325,278.1660,81.9068,0,U,56695,999,16728,-.27282E-5,-.337E-5,0
STARLINK-30130,2023-067K,2026-05-25T04:44:03.340032,15.27562547,.0003706,43.0080,198.7501,281.6169,78.4267,0,U,56697,999,16714,-.13489E-3,-.3972E-4,0
STARLINK-30068,2023-067L,2026-05-25T03:48:44.235648,15.27578147,.0001732,43.0038,188.0320,275.7207,84.3447,0,U,56698,999,16726,.13101E-4,.98E-6,0
STARLINK-30127,2023-067M,2026-05-25T05:29:05.672832,15.26734901,.0002062,43.0043,209.2049,266.4265,93.6350,0,U,56699,999,16728,.25868E-4,.434E-5,0
STARLINK-30053,2023-067N,2026-05-24T15:08:05.028864,15.27574664,.00018897,43.0028,202.2416,273.1514,86.9121,0,U,56700,999,16731,.42119297E-4,.897E-5,0
STARLINK-30125,2023-067P,2026-05-25T05:11:46.262688,15.27565960,.0001634,43.0022,198.8993,260.8755,99.1912,0,U,56701,999,16740,-.53276E-4,-.1727E-4,0
STARLINK-30117,2023-067Q,2026-05-24T15:30:40.809024,15.27581678,.00014281,43.0018,209.0957,259.0033,101.0658,0,U,56702,999,16723,.4323913E-4,.928E-5,0
STARLINK-30132,2023-067R,2026-05-25T04:22:57.238752,15.27573386,.000105,42.9976,202.0463,280.4168,79.6565,0,U,56703,999,16736,.37063E-4,.758E-5,0
STARLINK-30066,2023-067S,2026-05-25T04:49:33.991968,15.27577712,.0001302,43.0024,198.7641,277.5897,82.4807,0,U,56704,999,16740,.63397E-4,.1483E-4,0
STARLINK-30080,2023-067T,2026-05-25T03:16:35.124096,15.27576901,.0001559,43.0007,191.3246,275.8425,84.2249,0,U,56705,999,16748,.24328E-4,.407E-5,0
STARLINK-30079,2023-067U,2026-05-25T05:17:39.744960,15.26749043,.0001491,43.0027,209.1410,265.9512,94.1169,0,U,56706,999,16728,.24743E-4,.404E-5,0
STARLINK-30070,2023-067V,2026-05-24T15:09:55.480896,15.27575897,.00016841,43.0024,202.2449,257.1426,102.9238,0,U,56707,999,16731,.9224925E-5,-.8E-7,0
STARLINK-30071,2023-067W,2026-05-25T03:57:15.490368,15.27579359,.0002094,43.0014,202.7682,271.8684,88.1928,0,U,56708,999,16735,.14732E-3,.3794E-4,0
STARLINK-30085,2023-067X,2026-05-25T04:38:27.894624,15.27578702,.0001054,43.0025,198.7188,278.8579,81.2153,0,U,56709,999,16714,.20129E-4,.292E-5,0
ONEWEB-0561,2023-068A,2026-05-24T22:34:03.482112,13.20773308,.0002077,87.9175,279.0779,88.5739,271.5632,0,U,56710,999,14643,.10073E-3,.54E-6,0
ONEWEB-0668,2023-068B,2026-05-25T04:10:19.508160,13.16593211,.0002288,87.9111,233.3409,112.8400,247.2972,0,U,56711,999,14875,.22363E-3,.98E-6,0
ONEWEB-0676,2023-068C,2026-05-24T22:53:26.180736,13.16595970,.00023,87.9108,233.3909,95.2876,264.8517,0,U,56712,999,14864,-.6915E-4,-.14E-6,0
ONEWEB-0677,2023-068D,2026-05-25T01:55:16.870368,13.20772352,.0002311,87.9172,279.0417,101.2836,258.8557,0,U,56713,999,14675,.11373E-3,.59E-6,0
ONEWEB-0678,2023-068E,2026-05-25T00:55:30.732096,13.15547437,.0001749,87.8998,263.8042,92.6333,267.4998,0,U,56714,999,14624,-.26828E-3,-.88E-6,0
